YAMAL 401               
1 40345U 14082A   26175.80949935  .00000000  00000+0  00000+0 0  9997
2 40345   0.0146  16.4832 0000971  95.6403 182.2114  1.00268705 41998
ASTRA 2G                
1 40364U 14089A   26175.17598666  .00000157  00000+0  00000+0 0  9999
2 40364   0.0491  16.6220 0004835  54.4488 292.7831  1.00271896 42038
FENGYUN 2G              
1 40367U 14090A   26174.90415929 -.00000299  00000+0  00000+0 0  9992
2 40367   5.6568  72.7393 0003593 152.9330 111.5572  1.00269968 42061
MUOS-3                  
1 40374U 15002A   26175.20878243 -.00000125  00000+0  00000+0 0  9998
2 40374   4.5336  43.5496 0052421 177.8488 110.6835  1.00271067 41653
INMARSAT 5-F2           
1 40384U 15005A   26175.08828105 -.00000278  00000+0  00000+0 0  9999
2 40384   0.0185  17.6357 0000402 305.3812 285.9979  1.00272018 41063
ABS-3A                  
1 40424U 15010A   26175.07961463  .00000000  00000+0  00000+0 0  9996
2 40424   0.0420  53.6904 0001763 355.2482 248.9571  1.00270916 41440
EUTELSAT 115 WEST B     
1 40425U 15010B   26175.19905885 -.00000017  00000+0  00000+0 0  9995
2 40425   0.0112 153.7799 0000299  60.4448  14.8861  1.00270289 41460
EXPRESS-AM7             
1 40505U 15012A   26175.17832667  .00000158  00000+0  00000+0 0  9996
2 40505   0.0170 326.6639 0003281 137.2141 272.6629  1.00275521 41071
BEIDOU-3S IGSO-1S       
1 40549U 15019A   26174.79626225 -.00000180  00000+0  00000+0 0  9995
2 40549  49.1813 295.3807 0038874 191.2374 162.8236  1.00249795 41135
THOR 7                  
1 40613U 15022A   26175.17026662 -.00000001  00000+0  00000+0 0  9995
2 40613   0.0089  36.2439 0002576  51.3375 245.3801  1.00271104 40883
TURKMENALEM52E/MONACOSAT
1 40617U 15023A   26175.22891794  .00000111  00000+0  00000+0 0  9993
2 40617   0.0155  58.6140 0003019  31.3644 316.8498  1.00274858 40917
DIRECTV 15              
1 40663U 15026A   26175.19760943 -.00000095  00000+0  00000+0 0  9996
2 40663   0.0139  54.2408 0000541 338.0093 208.3690  1.00270328 40536
SKY MEXICO-1            
1 40664U 15026B   26175.22611060 -.00000227  00000+0  00000+0 0  9993
2 40664   0.0178 327.9235 0002454 141.9600 165.0977  1.00271346 40525
METEOSAT-11 (MSG-4)     
1 40732U 15034A   26175.17234663  .00000067  00000+0  00000+0 0  9993
2 40732   3.2181  71.0648 0002293 347.1800 285.6154  1.00265250  7287
STAR ONE C4             
1 40733U 15034B   26175.22767060 -.00000258  00000+0  00000+0 0  9995
2 40733   0.0258  25.3940 0002127  39.0528 219.9095  1.00271482 40088
WGS F7 (USA 263)        
1 40746U 15036A   26175.13379009  .00000000  00000+0  00000+0 0  9997
2 40746   0.0404  51.7735 0000376 133.7006 309.9494  1.00271170 39947
INTELSAT 34 (IS-34)     
1 40874U 15039A   26175.08819437 -.00000278  00000+0  00000+0 0  9998
2 40874   0.0095 353.9030 0000475  19.7271 234.8708  1.00270534 39708
EUTELSAT 8 WEST B       
1 40875U 15039B   26175.16887995 -.00000058  00000+0  00000+0 0  9998
2 40875   0.0624   1.1880 0003793  88.1705 235.7649  1.00271616 39728
GSAT-6                  
1 40880U 15041A   26175.18682003 -.00000154  00000+0  00000+0 0  9999
2 40880   1.9366  82.5078 0003173   3.8747 335.7543  1.00271088 39661
INMARSAT 5-F3           
1 40882U 15042A   26175.20598162  .00000057  00000+0  00000+0 0  9998
2 40882   0.0191  18.9514 0000331  65.9268  81.2411  1.00269975 39644
MUOS-4                  
1 40887U 15044A   26175.18534670 -.00000089  00000+0  00000+0 0  9992
2 40887   4.3433  42.2938 0057885   2.7417   9.0093  1.00272156 39634
TJS-1                   
1 40892U 15046A   26175.20112828 -.00000149  00000+0  00000+0 0  9997
2 40892   0.3421  84.9383 0005848   3.3401  51.5230  1.00270889 39649
EXPRESS-AM8             
1 40895U 15048A   26175.73802686 -.00000103  00000+0  00000+0 0  9998
2 40895   0.0148 295.7624 0000462 102.3412 126.4701  1.00271525 39423
BEIDOU-3S IGSO-2S       
1 40938U 15053A   26174.69365262 -.00000142  00000+0  00000+0 0  9993
2 40938  49.2096 258.7032 0065554 192.7581 164.9159  1.00258052 39416
SKY MUSTER 1 (NBN1A)    
1 40940U 15054A   26175.17475344  .00000000  00000+0  00000+0 0  9996
2 40940   0.0229 348.7817 0001917 101.9095  24.8025  1.00269744 39335
ARSAT 2                 
1 40941U 15054B   26175.22270348 -.00000217  00000+0  00000+0 0  9991
2 40941   0.0205  42.8115 0002105  39.1970 189.5411  1.00271963 39375
MORELOS 3               
1 40946U 15056A   26175.19380985 -.00000038  00000+0  00000+0 0  9994
2 40946   3.1926  15.2475 0000778   4.0212 209.7507  1.00271692 39359
APSTAR-9                
1 40982U 15059A   26175.17475344 -.00000259  00000+0  00000+0 0  9994
2 40982   0.0377 298.6572 0002774 239.6086 298.9649  1.00269772 39198
TURKSAT 4B              
1 40984U 15060A   26175.22891794  .00000123  00000+0  00000+0 0  9994
2 40984   0.0192  17.8530 0002402  70.6478 316.2369  1.00271022 39167
ZHONGXING-2C            
1 41021U 15063A   26175.76129046 -.00000314  00000+0  00000+0 0  9996
2 41021   0.2938  89.4168 0008017  95.8408 105.1164  1.00268247 39053
GSAT-15                 
1 41028U 15065A   26175.13532341 -.00000251  00000+0  00000+0 0  9992
2 41028   0.0532 263.9194 0004548 170.3153 340.2976  1.00271849 38860
BADR-7 (ARABSAT-6B)     
1 41029U 15065B   26175.17555332  .00000152  00000+0  00000+0 0  9991
2 41029   0.0394 216.9933 0003832 340.1808 164.3250  1.00271682 38837
