OBJECT_NAME,OBJECT_ID,EPOCH,MEAN_MOTION,ECCENTRICITY,INCLINATION,RA_OF_ASC_NODE,ARG_OF_PERICENTER,MEAN_ANOMALY,EPHEMERIS_TYPE,CLASSIFICATION_TYPE,NORAD_CAT_ID,ELEMENT_SET_NO,REV_AT_EPOCH,BSTAR,MEAN_MOTION_DOT,MEAN_MOTION_DDOT
YAMAL 401,2014-082A,2026-06-24T19:25:40.743840,1.00268705,.0000971,0.0146,16.4832,95.6403,182.2114,0,U,40345,999,4199,0,0,0
ASTRA 2G,2014-089A,2026-06-24T04:13:25.247424,1.00271896,.00048359,0.0491,16.6220,54.4488,292.7831,0,U,40364,999,4203,0,.157E-5,0
FENGYUN 2G,2014-090A,2026-06-23T21:41:59.362656,1.00269968,.00035936,5.6568,72.7393,152.9330,111.5572,0,U,40367,999,4206,0,-.299E-5,0
MUOS-3,2015-002A,2026-06-24T05:00:38.801952,1.00271067,.00524219,4.5336,43.5496,177.8488,110.6835,0,U,40374,999,4165,0,-.125E-5,0
INMARSAT 5-F2,2015-005A,2026-06-24T02:07:07.482720,1.00272018,.00004029,0.0185,17.6357,305.3812,285.9979,0,U,40384,999,4106,0,-.278E-5,0
ABS-3A,2015-010A,2026-06-24T01:54:38.704032,1.00270916,.00017639,0.0420,53.6904,355.2482,248.9571,0,U,40424,999,4144,0,0,0
EUTELSAT 115 WEST B,2015-010B,2026-06-24T04:46:38.684640,1.00270289,.00002991,0.0112,153.7799,60.4448,14.8861,0,U,40425,999,4146,0,-.17E-6,0
EXPRESS-AM7,2015-012A,2026-06-24T04:16:47.424288,1.00275521,.00032812,0.0170,326.6639,137.2141,272.6629,0,U,40505,999,4107,0,.158E-5,0
BEIDOU-3S IGSO-1S,2015-019A,2026-06-23T19:06:37.058400,1.00249795,.00388743,49.1813,295.3807,191.2374,162.8236,0,U,40549,999,4113,0,-.18E-5,0
THOR 7,2015-022A,2026-06-24T04:05:11.035968,1.00271104,.0002576,0.0089,36.2439,51.3375,245.3801,0,U,40613,999,4088,0,-.1E-7,0
TURKMENALEM52E/MONACOSAT,2015-023A,2026-06-24T05:29:38.510016,1.00274858,.0003019,0.0155,58.6140,31.3644,316.8498,0,U,40617,999,4091,0,.111E-5,0
DIRECTV 15,2015-026A,2026-06-24T04:44:33.454752,1.00270328,.00005413,0.0139,54.2408,338.0093,208.3690,0,U,40663,999,4053,0,-.95E-6,0
SKY MEXICO-1,2015-026B,2026-06-24T05:25:35.955840,1.00271346,.00024544,0.0178,327.9235,141.9600,165.0977,0,U,40664,999,4052,0,-.227E-5,0
METEOSAT-11 (MSG-4),2015-034A,2026-06-24T04:08:10.748832,1.00265250,.00022933,3.2181,71.0648,347.1800,285.6154,0,U,40732,999,728,0,.67E-6,0
STAR ONE C4,2015-034B,2026-06-24T05:27:50.739840,1.00271482,.00021275,0.0258,25.3940,39.0528,219.9095,0,U,40733,999,4008,0,-.258E-5,0
WGS F7 (USA 263),2015-036A,2026-06-24T03:12:39.463776,1.00271170,.0000376,0.0404,51.7735,133.7006,309.9494,0,U,40746,999,3994,0,0,0
INTELSAT 34 (IS-34),2015-039A,2026-06-24T02:06:59.993568,1.00270534,.00004753,0.0095,353.9030,19.7271,234.8708,0,U,40874,999,3970,0,-.278E-5,0
EUTELSAT 8 WEST B,2015-039B,2026-06-24T04:03:11.227680,1.00271616,.00037939,0.0624,1.1880,88.1705,235.7649,0,U,40875,999,3972,0,-.58E-6,0
GSAT-6,2015-041A,2026-06-24T04:29:01.250592,1.00271088,.00031733,1.9366,82.5078,3.8747,335.7543,0,U,40880,999,3966,0,-.154E-5,0
INMARSAT 5-F3,2015-042A,2026-06-24T04:56:36.811968,1.00269975,.00003317,0.0191,18.9514,65.9268,81.2411,0,U,40882,999,3964,0,.57E-6,0
MUOS-4,2015-044A,2026-06-24T04:26:53.954880,1.00272156,.00578854,4.3433,42.2938,2.7417,9.0093,0,U,40887,999,3963,0,-.89E-6,0
TJS-1,2015-046A,2026-06-24T04:49:37.483392,1.00270889,.00058484,0.3421,84.9383,3.3401,51.5230,0,U,40892,999,3964,0,-.149E-5,0
EXPRESS-AM8,2015-048A,2026-06-24T17:42:45.520704,1.00271525,.0000462,0.0148,295.7624,102.3412,126.4701,0,U,40895,999,3942,0,-.103E-5,0
BEIDOU-3S IGSO-2S,2015-053A,2026-06-23T16:38:51.586368,1.00258052,.00655545,49.2096,258.7032,192.7581,164.9159,0,U,40938,999,3941,0,-.142E-5,0
SKY MUSTER 1 (NBN1A),2015-054A,2026-06-24T04:11:38.697216,1.00269744,.00019173,0.0229,348.7817,101.9095,24.8025,0,U,40940,999,3933,0,0,0
ARSAT 2,2015-054B,2026-06-24T05:20:41.580672,1.00271963,.00021059,0.0205,42.8115,39.1970,189.5411,0,U,40941,999,3937,0,-.217E-5,0
MORELOS 3,2015-056A,2026-06-24T04:39:05.171040,1.00271692,.00007787,3.1926,15.2475,4.0212,209.7507,0,U,40946,999,3935,0,-.38E-6,0
APSTAR-9,2015-059A,2026-06-24T04:11:38.697216,1.00269772,.00027749,0.0377,298.6572,239.6086,298.9649,0,U,40982,999,3919,0,-.259E-5,0
TURKSAT 4B,2015-060A,2026-06-24T05:29:38.510016,1.00271022,.00024029,0.0192,17.8530,70.6478,316.2369,0,U,40984,999,3916,0,.123E-5,0
ZHONGXING-2C,2015-063A,2026-06-24T18:16:15.495744,1.00268247,.0008017,0.2938,89.4168,95.8408,105.1164,0,U,41021,999,3905,0,-.314E-5,0
GSAT-15,2015-065A,2026-06-24T03:14:51.942624,1.00271849,.00045486,0.0532,263.9194,170.3153,340.2976,0,U,41028,999,3886,0,-.251E-5,0
BADR-7 (ARABSAT-6B),2015-065B,2026-06-24T04:12:47.806848,1.00271682,.0003832,0.0394,216.9933,340.1808,164.3250,0,U,41029,999,3883,0,.152E-5,0
